0 FENGYUN 1C DEB
1 30346U 99025ABH 13282.64447565  .00001871  00000-0  10858-2 0  7638
2 30346 099.0637 312.0326 0080721 080.7268 031.8248 14.08366016344808
0 FENGYUN 1C DEB
1 30346U 99025ABH 13283.84675874  .00002115  00000-0  12244-2 0  7641
2 30346 099.0635 313.2406 0080644 077.3864 007.5242 14.08370945344974
0 FENGYUN 1C DEB
1 30346U 99025ABH 13285.04361513  .00002316  00000-0  13381-2 0  7654
2 30346 099.0639 314.4424 0080634 074.0275 315.7666 14.08372858345149
0 FENGYUN 1C DEB
1 30346U 99025ABH 13286.62356567  .00002546  00000-0  14682-2 0  7663
2 30346 099.0637 316.0299 0080482 069.6223 046.3483 14.08379162345362
0 FENGYUN 1C DEB
1 30346U 99025ABH 13287.74765150  .00003014  00000-0  17333-2 0  7677
2 30346 099.0632 317.1592 0080378 066.4730 345.6677 14.08385583345529
0 FENGYUN 1C DEB
1 30346U 99025ABH 13288.81372772  .00002829  00000-0  16284-2 0  7688
2 30346 099.0628 318.2302 0080355 063.4926 350.8872 14.08393673345674
0 FENGYUN 1C DEB
1 30346U 99025ABH 13289.89291932  .00002806  00000-0  16156-2 0  7699
2 30346 099.0624 319.3145 0080338 060.4881 062.6189 14.08398582345825
0 FENGYUN 1C DEB
1 30346U 99025ABH 13291.38595569  .00002419  00000-0  13961-2 0  7702
2 30346 099.0619 320.8144 0080245 056.3081 072.6899 14.08406822346038
0 FENGYUN 1C DEB
1 30346U 99025ABH 13292.79231159  .00002438  00000-0  14070-2 0  7714
2 30346 099.0616 322.2271 0080146 052.3768 003.3029 14.08412887346236
0 FENGYUN 1C DEB
1 30346U 99025ABH 13294.07057295  .00002649  00000-0  15264-2 0  7725
2 30346 099.0616 323.5110 0080040 048.7887 004.4822 14.08417932346415
0 FENGYUN 1C DEB
1 30346U 99025ABH 13295.64545476  .00002748  00000-0  15821-2 0  7732
2 30346 099.0617 325.0929 0079876 044.3615 069.6582 14.08425013346636
